{"fetched_at":"2026-04-01T16:59:04Z","count":11445,"tles":[{"name":"STARLINK-37192","line1":"1 68342U 26059X   26090.66668981 -.01956325  00000+0 -10233-1 0  9994","line2":"2 68342  53.1592 252.5623 0000857  73.8084 226.6208 15.83167276  2571","category":"Starlink"}]}